DUCHIFAT-3              
1 44854U 19089C   20166.89676725  .00000277  00000-0  28837-4 0  9995
2 44854  36.9650 113.4595 0008081  34.4999 325.6271 14.99067724 27913
ORBITAL FACTORY 2 (OF-2)
1 45113U 19071C   20166.87716873  .00001197  00000-0  48122-4 0  9993
2 45113  51.6455  15.9939 0013519  50.4318 309.7856 15.33348297 20733
